[Satellite]
VERSION=1.1
NAME=MOLNIYA 3-47
NICKNAME=MOLNIYA 3-47
TLE1=1 23642U 95042A   15053.55220860  .00000140  00000-0  13979-2 0  9995
TLE2=2 23642  61.9663  78.6238 7457306 273.6961 347.4573  2.00679722143196
